ONEWEB-0056             
1 45159U 20008AE  26109.11565223  .00000490  00000+0  13668-2 0  9995
2 45159  87.8851  48.0154 0001731  78.1341 281.9980 13.10374323300446
ONEWEB-0057             
1 45160U 20008AF  26109.27597870  .00000709  00000+0  19944-2 0  9993
2 45160  87.8846  47.9925 0001867  95.4227 264.7114 13.10372308300631
ONEWEB-0058             
1 45161U 20008AG  26109.26268848  .00000275  00000+0  75223-3 0  9994
2 45161  87.8850  48.0036 0002131  75.5844 284.5520 13.10375470300703
ONEWEB-0059             
1 45162U 20008AH  26109.25922690  .00000066  00000+0  15174-3 0  9993
2 45162  87.8843  48.0042 0002085  82.2168 277.9196 13.10375471300600
ONEWEB-0062             
1 45163U 20008AJ  26109.05589521  .00000510  00000+0  14245-2 0  9995
2 45163  87.8843  48.0290 0002174  69.5878 290.5483 13.10371093300449
ONEWEB-0065             
1 45164U 20008AK  26109.08643513 -.00000654  00000+0 -19111-2 0  9999
2 45164  87.8835  48.0296 0001648  87.6464 272.4853 13.10372538300146
ONEWEB-0066             
1 45424U 20020A   26109.24559948  .00000414  00000+0  11334-2 0  9999
2 45424  87.8931  32.7866 0002006  80.7066 279.4288 13.11414737294955
ONEWEB-0067             
1 45425U 20020B   26109.20742237 -.00000286  00000+0 -84351-3 0  9990
2 45425  87.8947  32.7070 0001803  87.0802 273.0532 13.11422633295005
ONEWEB-0080             
1 45426U 20020C   26109.20673383 -.00000349  00000+0 -10219-2 0  9997
2 45426  87.8933  32.7869 0002048  70.2733 289.8616 13.11417929294971
ONEWEB-0090             
1 45427U 20020D   26109.08297157  .00000621  00000+0  17175-2 0  9994
2 45427  87.8929  32.8166 0001893  76.9544 283.1795 13.11417013294922
ONEWEB-0061             
1 45428U 20020E   26109.03860429 -.00000497  00000+0 -14390-2 0  9997
2 45428  87.8926  32.8108 0001888  77.8860 282.2480 13.11415345294872
ONEWEB-0081             
1 45429U 20020F   26109.17268617  .00000300  00000+0  81010-3 0  9999
2 45429  87.8916  32.7981 0001941  84.5278 275.6071 13.11416815295009
ONEWEB-0069             
1 45430U 20020G   26109.08538122  .00000603  00000+0  16652-2 0  9997
2 45430  87.8924  32.8106 0001850  81.4820 278.6518 13.11415995294925
ONEWEB-0031             
1 45431U 20020H   26109.20998186 -.00000220  00000+0 -65721-3 0  9991
2 45431  87.8920  32.8013 0001921  72.6708 287.4630 13.11418593294925
ONEWEB-0027             
1 45432U 20020J   26109.15159818  .00000015  00000+0  45382-5 0  9990
2 45432  87.9197  17.5733 0001681  68.0912 292.0398 13.17648843298589
ONEWEB-0064             
1 45433U 20020K   26109.20828465 -.00000320  00000+0 -93871-3 0  9993
2 45433  87.8917  32.7919 0001809  72.8071 287.3255 13.11418646294951
ONEWEB-0018             
1 45434U 20020L   26109.08791919  .00000527  00000+0  14501-2 0  9992
2 45434  87.8919  32.8150 0002231  79.4286 280.7093 13.11415301294887
