[{"OBJECT_NAME":"ONEWEB-0056","OBJECT_ID":"2020-008AE","EPOCH":"2026-04-19T02:46:32.352672","MEAN_MOTION":13.10374323,"ECCENTRICITY":0.0001731,"INCLINATION":87.8851,"RA_OF_ASC_NODE":48.0154,"ARG_OF_PERICENTER":78.1341,"MEAN_ANOMALY":281.998,"EPHEMERIS_TYPE":0,"CLASSIFICATION_TYPE":"U","NORAD_CAT_ID":45159,"ELEMENT_SET_NO":999,"REV_AT_EPOCH":30044,"BSTAR":0.0013668,"MEAN_MOTION_DOT":4.9e-06,"MEAN_MOTION_DDOT":0.0},{"OBJECT_NAME":"ONEWEB-0057","OBJECT_ID":"2020-008AF","EPOCH":"2026-04-19T06:37:24.559680","MEAN_MOTION":13.10372308,"ECCENTRICITY":0.0001867,"INCLINATION":87.8846,"RA_OF_ASC_NODE":47.9925,"ARG_OF_PERICENTER":95.4227,"MEAN_ANOMALY":264.7114,"EPHEMERIS_TYPE":0,"CLASSIFICATION_TYPE":"U","NORAD_CAT_ID":45160,"ELEMENT_SET_NO":999,"REV_AT_EPOCH":30063,"BSTAR":0.0019944,"MEAN_MOTION_DOT":7.09e-06,"MEAN_MOTION_DDOT":0.0},{"OBJECT_NAME":"ONEWEB-0058","OBJECT_ID":"2020-008AG","EPOCH":"2026-04-19T06:18:16.284672","MEAN_MOTION":13.1037547,"ECCENTRICITY":0.0002131,"INCLINATION":87.885,"RA_OF_ASC_NODE":48.0036,"ARG_OF_PERICENTER":75.5844,"MEAN_ANOMALY":284.552,"EPHEMERIS_TYPE":0,"CLASSIFICATION_TYPE":"U","NORAD_CAT_ID":45161,"ELEMENT_SET_NO":999,"REV_AT_EPOCH":30070,"BSTAR":0.00075223,"MEAN_MOTION_DOT":2.75e-06,"MEAN_MOTION_DDOT":0.0},{"OBJECT_NAME":"ONEWEB-0059","OBJECT_ID":"2020-008AH","EPOCH":"2026-04-19T06:13:17.204160","MEAN_MOTION":13.10375471,"ECCENTRICITY":0.0002085,"INCLINATION":87.8843,"RA_OF_ASC_NODE":48.0042,"ARG_OF_PERICENTER":82.2168,"MEAN_ANOMALY":277.9196,"EPHEMERIS_TYPE":0,"CLASSIFICATION_TYPE":"U","NORAD_CAT_ID":45162,"ELEMENT_SET_NO":999,"REV_AT_EPOCH":30060,"BSTAR":0.00015174,"MEAN_MOTION_DOT":6.6e-07,"MEAN_MOTION_DDOT":0.0},{"OBJECT_NAME":"ONEWEB-0062","OBJECT_ID":"2020-008AJ","EPOCH":"2026-04-19T01:20:29.346144","MEAN_MOTION":13.10371093,"ECCENTRICITY":0.0002174,"INCLINATION":87.8843,"RA_OF_ASC_NODE":48.029,"ARG_OF_PERICENTER":69.5878,"MEAN_ANOMALY":290.5483,"EPHEMERIS_TYPE":0,"CLASSIFICATION_TYPE":"U","NORAD_CAT_ID":45163,"ELEMENT_SET_NO":999,"REV_AT_EPOCH":30044,"BSTAR":0.0014245,"MEAN_MOTION_DOT":5.1e-06,"MEAN_MOTION_DDOT":0.0},{"OBJECT_NAME":"ONEWEB-0065","OBJECT_ID":"2020-008AK","EPOCH":"2026-04-19T02:04:27.995232","MEAN_MOTION":13.10372538,"ECCENTRICITY":0.0001648,"INCLINATION":87.8835,"RA_OF_ASC_NODE":48.0296,"ARG_OF_PERICENTER":87.6464,"MEAN_ANOMALY":272.4853,"EPHEMERIS_TYPE":0,"CLASSIFICATION_TYPE":"U","NORAD_CAT_ID":45164,"ELEMENT_SET_NO":999,"REV_AT_EPOCH":30014,"BSTAR":-0.0019111,"MEAN_MOTION_DOT":-6.54e-06,"MEAN_MOTION_DDOT":0.0},{"OBJECT_NAME":"ONEWEB-0066","OBJECT_ID":"2020-020A","EPOCH":"2026-04-19T05:53:39.795072","MEAN_MOTION":13.11414737,"ECCENTRICITY":0.0002006,"INCLINATION":87.8931,"RA_OF_ASC_NODE":32.7866,"ARG_OF_PERICENTER":80.7066,"MEAN_ANOMALY":279.4288,"EPHEMERIS_TYPE":0,"CLASSIFICATION_TYPE":"U","NORAD_CAT_ID":45424,"ELEMENT_SET_NO":999,"REV_AT_EPOCH":29495,"BSTAR":0.0011334,"MEAN_MOTION_DOT":4.14e-06,"MEAN_MOTION_DDOT":0.0},{"OBJECT_NAME":"ONEWEB-0067","OBJECT_ID":"2020-020B","EPOCH":"2026-04-19T04:58:41.292768","MEAN_MOTION":13.11422633,"ECCENTRICITY":0.0001803,"INCLINATION":87.8947,"RA_OF_ASC_NODE":32.707,"ARG_OF_PERICENTER":87.0802,"MEAN_ANOMALY":273.0532,"EPHEMERIS_TYPE":0,"CLASSIFICATION_TYPE":"U","NORAD_CAT_ID":45425,"ELEMENT_SET_NO":999,"REV_AT_EPOCH":29500,"BSTAR":-0.00084351,"MEAN_MOTION_DOT":-2.86e-06,"MEAN_MOTION_DDOT":0.0},{"OBJECT_NAME":"ONEWEB-0080","OBJECT_ID":"2020-020C","EPOCH":"2026-04-19T04:57:41.802912","MEAN_MOTION":13.11417929,"ECCENTRICITY":0.0002048,"INCLINATION":87.8933,"RA_OF_ASC_NODE":32.7869,"ARG_OF_PERICENTER":70.2733,"MEAN_ANOMALY":289.8616,"EPHEMERIS_TYPE":0,"CLASSIFICATION_TYPE":"U","NORAD_CAT_ID":45426,"ELEMENT_SET_NO":999,"REV_AT_EPOCH":29497,"BSTAR":-0.0010219,"MEAN_MOTION_DOT":-3.49e-06,"MEAN_MOTION_DDOT":0.0},{"OBJECT_NAME":"ONEWEB-0090","OBJECT_ID":"2020-020D","EPOCH":"2026-04-19T01:59:28.743648","MEAN_MOTION":13.11417013,"ECCENTRICITY":0.0001893,"INCLINATION":87.8929,"RA_OF_ASC_NODE":32.8166,"ARG_OF_PERICENTER":76.9544,"MEAN_ANOMALY":283.1795,"EPHEMERIS_TYPE":0,"CLASSIFICATION_TYPE":"U","NORAD_CAT_ID":45427,"ELEMENT_SET_NO":999,"REV_AT_EPOCH":29492,"BSTAR":0.0017175000000000003,"MEAN_MOTION_DOT":6.21e-06,"MEAN_MOTION_DDOT":0.0},{"OBJECT_NAME":"ONEWEB-0061","OBJECT_ID":"2020-020E","EPOCH":"2026-04-19T00:55:35.410656","MEAN_MOTION":13.11415345,"ECCENTRICITY":0.0001888,"INCLINATION":87.8926,"RA_OF_ASC_NODE":32.8108,"ARG_OF_PERICENTER":77.886,"MEAN_ANOMALY":282.248,"EPHEMERIS_TYPE":0,"CLASSIFICATION_TYPE":"U","NORAD_CAT_ID":45428,"ELEMENT_SET_NO":999,"REV_AT_EPOCH":29487,"BSTAR":-0.001439,"MEAN_MOTION_DOT":-4.97e-06,"MEAN_MOTION_DDOT":0.0},{"OBJECT_NAME":"ONEWEB-0081","OBJECT_ID":"2020-020F","EPOCH":"2026-04-19T04:08:40.085088","MEAN_MOTION":13.11416815,"ECCENTRICITY":0.0001941,"INCLINATION":87.8916,"RA_OF_ASC_NODE":32.7981,"ARG_OF_PERICENTER":84.5278,"MEAN_ANOMALY":275.6071,"EPHEMERIS_TYPE":0,"CLASSIFICATION_TYPE":"U","NORAD_CAT_ID":45429,"ELEMENT_SET_NO":999,"REV_AT_EPOCH":29500,"BSTAR":0.0008101,"MEAN_MOTION_DOT":3e-06,"MEAN_MOTION_DDOT":0.0},{"OBJECT_NAME":"ONEWEB-0069","OBJECT_ID":"2020-020G","EPOCH":"2026-04-19T02:02:56.937408","MEAN_MOTION":13.11415995,"ECCENTRICITY":0.000185,"INCLINATION":87.8924,"RA_OF_ASC_NODE":32.8106,"ARG_OF_PERICENTER":81.482,"MEAN_ANOMALY":278.6518,"EPHEMERIS_TYPE":0,"CLASSIFICATION_TYPE":"U","NORAD_CAT_ID":45430,"ELEMENT_SET_NO":999,"REV_AT_EPOCH":29492,"BSTAR":0.0016652000000000001,"MEAN_MOTION_DOT":6.03e-06,"MEAN_MOTION_DDOT":0.0},{"OBJECT_NAME":"ONEWEB-0031","OBJECT_ID":"2020-020H","EPOCH":"2026-04-19T05:02:22.432704","MEAN_MOTION":13.11418593,"ECCENTRICITY":0.0001921,"INCLINATION":87.892,"RA_OF_ASC_NODE":32.8013,"ARG_OF_PERICENTER":72.6708,"MEAN_ANOMALY":287.463,"EPHEMERIS_TYPE":0,"CLASSIFICATION_TYPE":"U","NORAD_CAT_ID":45431,"ELEMENT_SET_NO":999,"REV_AT_EPOCH":29492,"BSTAR":-0.00065721,"MEAN_MOTION_DOT":-2.2e-06,"MEAN_MOTION_DDOT":0.0},{"OBJECT_NAME":"ONEWEB-0027","OBJECT_ID":"2020-020J","EPOCH":"2026-04-19T03:38:18.082752","MEAN_MOTION":13.17648843,"ECCENTRICITY":0.0001681,"INCLINATION":87.9197,"RA_OF_ASC_NODE":17.5733,"ARG_OF_PERICENTER":68.0912,"MEAN_ANOMALY":292.0398,"EPHEMERIS_TYPE":0,"CLASSIFICATION_TYPE":"U","NORAD_CAT_ID":45432,"ELEMENT_SET_NO":999,"REV_AT_EPOCH":29858,"BSTAR":4.5382e-06,"MEAN_MOTION_DOT":1.5e-07,"MEAN_MOTION_DDOT":0.0},{"OBJECT_NAME":"ONEWEB-0064","OBJECT_ID":"2020-020K","EPOCH":"2026-04-19T04:59:55.793760","MEAN_MOTION":13.11418646,"ECCENTRICITY":0.0001809,"INCLINATION":87.8917,"RA_OF_ASC_NODE":32.7919,"ARG_OF_PERICENTER":72.8071,"MEAN_ANOMALY":287.3255,"EPHEMERIS_TYPE":0,"CLASSIFICATION_TYPE":"U","NORAD_CAT_ID":45433,"ELEMENT_SET_NO":999,"REV_AT_EPOCH":29495,"BSTAR":-0.00093871,"MEAN_MOTION_DOT":-3.2e-06,"MEAN_MOTION_DDOT":0.0},{"OBJECT_NAME":"ONEWEB-0018","OBJECT_ID":"2020-020L","EPOCH":"2026-04-19T02:06:36.218016","MEAN_MOTION":13.11415301,"ECCENTRICITY":0.0002231,"INCLINATION":87.8919,"RA_OF_ASC_NODE":32.815,"ARG_OF_PERICENTER":79.4286,"MEAN_ANOMALY":280.7093,"EPHEMERIS_TYPE":0,"CLASSIFICATION_TYPE":"U","NORAD_CAT_ID":45434,"ELEMENT_SET_NO":999,"REV_AT_EPOCH":29488,"BSTAR":0.0014501,"MEAN_MOTION_DOT":5.27e-06,"MEAN_MOTION_DDOT":0.0}]